start=new Date('2023-05-09T00:00:00.000Z').valueOf();
sats=[{"LAUNCH_DATE":"2020-02-17","MEAN_ELEMENT_THEORY":"SGP4","TIME_SYSTEM":"UTC","MEAN_ANOMALY":"170.9360","ELEMENT_SET_NO":"999","TLE_LINE2":"2 45213  53.0521 237.5966 0001332 189.1627 170.9360 15.56238191180662","MEAN_MOTION_DOT":"0.00044527","FILE":"3904305","COUNTRY_CODE":"US","CLASSIFICATION_TYPE":"U","SEMIMAJOR_AXIS":"6776.693","CENTER_NAME":"EARTH","EPHEMERIS_TYPE":"0","OBJECT_TYPE":"PAYLOAD","EPOCH":"2023-05-08T13:59:49.939296","INCLINATION":"53.0521","RA_OF_ASC_NODE":"237.5966","OBJECT_NAME":"STARLINK-1232","ECCENTRICITY":"0.00013320","BSTAR":"0.00062657000000","MEAN_MOTION_DDOT":"0.0000000000000","GP_ID":"231471875","TLE_LINE1":"1 45213U 20012AM  23128.58321689  .00044527  00000-0  62657-3 0  9999","PERIAPSIS":"397.655","REF_FRAME":"TEME","RCS_SIZE":"LARGE","PERIOD":"92.531","APOAPSIS":"399.460","DECAY_DATE":null,"MEAN_MOTION":"15.56238191","NORAD_CAT_ID":"45213","ARG_OF_PERICENTER":"189.1627","SITE":"AFETR","OBJECT_ID":"2020-012AM","REV_AT_EPOCH":"18066"},{"DECAY_DATE":null,"APOAPSIS":"547.998","REF_FRAME":"TEME","PERIOD":"95.592","RCS_SIZE":"LARGE","TLE_LINE1":"1 45214U 20012AN  23128.94034443  .00016870  00000-0  11486-2 0  9992","GP_ID":"231471622","PERIAPSIS":"546.403","REV_AT_EPOCH":"17900","OBJECT_ID":"2020-012AN","ARG_OF_PERICENTER":"95.2257","SITE":"AFETR","MEAN_MOTION":"15.06404268","NORAD_CAT_ID":"45214","BSTAR":"0.00114860000000","ECCENTRICITY":"0.00011510","OBJECT_NAME":"STARLINK-1233","RA_OF_ASC_NODE":"356.2683","MEAN_MOTION_DDOT":"0.0000000000000","EPHEMERIS_TYPE":"0","CENTER_NAME":"EARTH","SEMIMAJOR_AXIS":"6925.335","COUNTRY_CODE":"US","CLASSIFICATION_TYPE":"U","EPOCH":"2023-05-08T22:34:05.758752","INCLINATION":"53.0541","OBJECT_TYPE":"PAYLOAD","TLE_LINE2":"2 45214  53.0541 356.2683 0001151  95.2257 264.8864 15.06404268179008","LAUNCH_DATE":"2020-02-17","TIME_SYSTEM":"UTC","MEAN_ELEMENT_THEORY":"SGP4","MEAN_ANOMALY":"264.8864","ELEMENT_SET_NO":"999","FILE":"3904305","MEAN_MOTION_DOT":"0.00016870"},{"NORAD_CAT_ID":"45215","MEAN_MOTION":"15.06407532","SITE":"AFETR","ARG_OF_PERICENTER":"83.4210","OBJECT_ID":"2020-012AP","REV_AT_EPOCH":"17894","PERIAPSIS":"546.514","TLE_LINE1":"1 45215U 20012AP  23128.93760988  .00021264  00000-0  14418-2 0  9993","GP_ID":"231470375","RCS_SIZE":"LARGE","PERIOD":"95.592","REF_FRAME":"TEME","APOAPSIS":"547.867","DECAY_DATE":null,"MEAN_MOTION_DDOT":"0.0000000000000","RA_OF_ASC_NODE":"356.2883","OBJECT_NAME":"STARLINK-1245","ECCENTRICITY":"0.00009770","BSTAR":"0.00144180000000","OBJECT_TYPE":"PAYLOAD","EPOCH":"2023-05-08T22:30:09.493632","INCLINATION":"53.0543","CLASSIFICATION_TYPE":"U","COUNTRY_CODE":"US","SEMIMAJOR_AXIS":"6925.325","CENTER_NAME":"EARTH","EPHEMERIS_TYPE":"0","MEAN_MOTION_DOT":"0.00021264","FILE":"3904305","ELEMENT_SET_NO":"999","LAUNCH_DATE":"2020-02-17","MEAN_ELEMENT_THEORY":"SGP4","TIME_SYSTEM":"UTC","MEAN_ANOMALY":"276.6890","TLE_LINE2":"2 45215  53.0543 356.2883 0000977  83.4210 276.6890 15.06407532178945"},{"NORAD_CAT_ID":"45217","MEAN_MOTION":"15.06418938","SITE":"AFETR","ARG_OF_PERICENTER":"85.0720","OBJECT_ID":"2020-012AR","REV_AT_EPOCH":"17900","GP_ID":"231470620","TLE_LINE1":"1 45217U 20012AR  23128.91180425  .00023346  00000-0  15802-2 0  9996","PERIAPSIS":"546.316","PERIOD":"95.591","RCS_SIZE":"LARGE","REF_FRAME":"TEME","APOAPSIS":"547.995","DECAY_DATE":null,"MEAN_MOTION_DDOT":"0.0000000000000","OBJECT_NAME":"STARLINK-1271","RA_OF_ASC_NODE":"356.4041","ECCENTRICITY":"0.00012120","BSTAR":"0.00158020000000","OBJECT_TYPE":"PAYLOAD","EPOCH":"2023-05-08T21:52:59.887200","INCLINATION":"53.0548","CLASSIFICATION_TYPE":"U","COUNTRY_CODE":"US","SEMIMAJOR_AXIS":"6925.291","CENTER_NAME":"EARTH","EPHEMERIS_TYPE":"0","MEAN_MOTION_DOT":"0.00023346","FILE":"3904305","LAUNCH_DATE":"2020-02-17","MEAN_ANOMALY":"275.0408","TIME_SYSTEM":"UTC","ELEMENT_SET_NO":"999","MEAN_ELEMENT_THEORY":"SGP4","TLE_LINE2":"2 45217  53.0548 356.4041 0001212  85.0720 275.0408 15.06418938179005"},{"MEAN_MOTION_DDOT":"0.0000000000000","ECCENTRICITY":"0.00014290","BSTAR":"0.00140020000000","OBJECT_NAME":"STARLINK-1187","RA_OF_ASC_NODE":"336.7211","OBJECT_ID":"2020-012AT","REV_AT_EPOCH":"17928","MEAN_MOTION":"15.06419036","NORAD_CAT_ID":"45219","SITE":"AFETR","ARG_OF_PERICENTER":"86.9927","APOAPSIS":"548.145","DECAY_DATE":null,"GP_ID":"231471375","TLE_LINE1":"1 45219U 20012AT  23128.84360660  .00020647  00000-0  14002-2 0  9993","PERIAPSIS":"546.166","REF_FRAME":"TEME","PERIOD":"95.591","RCS_SIZE":"LARGE","MEAN_MOTION_DOT":"0.00020647","FILE":"3904305","TLE_LINE2":"2 45219  53.0539 336.7211 0001429  86.9927 273.1226 15.06419036179283","ELEMENT_SET_NO":"999","LAUNCH_DATE":"2020-02-17","MEAN_ELEMENT_THEORY":"SGP4","MEAN_ANOMALY":"273.1226","TIME_SYSTEM":"UTC","INCLINATION":"53.0539","EPOCH":"2023-05-08T20:14:47.610240","OBJECT_TYPE":"PAYLOAD","CENTER_NAME":"EARTH","EPHEMERIS_TYPE":"0","COUNTRY_CODE":"US","CLASSIFICATION_TYPE":"U","SEMIMAJOR_AXIS":"6925.290"},{"CENTER_NAME":"EARTH","EPHEMERIS_TYPE":"0","CLASSIFICATION_TYPE":"U","COUNTRY_CODE":"US","SEMIMAJOR_AXIS":"6925.276","EPOCH":"2023-05-08T20:20:06.320832","INCLINATION":"53.0535","OBJECT_TYPE":"PAYLOAD","TLE_LINE2":"2 45221  53.0535 336.6970 0001190  71.6525 288.4594 15.06423562179278","TIME_SYSTEM":"UTC","LAUNCH_DATE":"2020-02-17","MEAN_ELEMENT_THEORY":"SGP4","MEAN_ANOMALY":"288.4594","ELEMENT_SET_NO":"999","MEAN_MOTION_DOT":"0.00023050","FILE":"3904305","APOAPSIS":"547.965","DECAY_DATE":null,"TLE_LINE1":"1 45221U 20012AV  23128.84729538  .00023050  00000-0  15603-2 0  9998","GP_ID":"231472123","PERIAPSIS":"546.317","PERIOD":"95.591","RCS_SIZE":"LARGE","REF_FRAME":"TEME","OBJECT_ID":"2020-012AV","REV_AT_EPOCH":"17927","NORAD_CAT_ID":"45221","MEAN_MOTION":"15.06423562","SITE":"AFETR","ARG_OF_PERICENTER":"71.6525","ECCENTRICITY":"0.00011900","BSTAR":"0.00156030000000","RA_OF_ASC_NODE":"336.6970","OBJECT_NAME":"STARLINK-1189","MEAN_MOTION_DDOT":"0.0000000000000"},{"SEMIMAJOR_AXIS":"6925.270","COUNTRY_CODE":"US","CLASSIFICATION_TYPE":"U","EPHEMERIS_TYPE":"0","CENTER_NAME":"EARTH","OBJECT_TYPE":"PAYLOAD","INCLINATION":"53.0542","EPOCH":"2023-05-08T20:30:43.236576","MEAN_ELEMENT_THEORY":"SGP4","LAUNCH_DATE":"2020-02-17","ELEMENT_SET_NO":"999","MEAN_ANOMALY":"279.4101","TIME_SYSTEM":"UTC","TLE_LINE2":"2 45222  53.0542 336.6609 0001192  80.7022 279.4101 15.06425622179274","FILE":"3904305","MEAN_MOTION_DOT":"0.00020916","REF_FRAME":"TEME","PERIOD":"95.591","RCS_SIZE":"LARGE","GP_ID":"231470875","TLE_LINE1":"1 45222U 20012AW  23128.85466709  .00020916  00000-0  14179-2 0  9993","PERIAPSIS":"546.310","DECAY_DATE":null,"APOAPSIS":"547.961","ARG_OF_PERICENTER":"80.7022","SITE":"AFETR","MEAN_MOTION":"15.06425622","NORAD_CAT_ID":"45222","REV_AT_EPOCH":"17927","OBJECT_ID":"2020-012AW","OBJECT_NAME":"STARLINK-1191","RA_OF_ASC_NODE":"336.6609","BSTAR":"0.00141790000000","ECCENTRICITY":"0.00011920","MEAN_MOTION_DDOT":"0.0000000000000"},{"APOAPSIS":"548.024","DECAY_DATE":null,"TLE_LINE1":"1 45223U 20012AX  23128.87583619  .00013798  00000-0  94310-3 0  9992","GP_ID":"231471120","PERIAPSIS":"546.341","REF_FRAME":"TEME","PERIOD":"95.592","RCS_SIZE":"LARGE","OBJECT_ID":"2020-012AX","REV_AT_EPOCH":"17928","MEAN_MOTION":"15.06410021","NORAD_CAT_ID":"45223","SITE":"AFETR","ARG_OF_PERICENTER":"81.9183","ECCENTRICITY":"0.00012150","BSTAR":"0.00094310000000","OBJECT_NAME":"STARLINK-1212","RA_OF_ASC_NODE":"336.5615","MEAN_MOTION_DDOT":"0.0000000000000","CENTER_NAME":"EARTH","EPHEMERIS_TYPE":"0","COUNTRY_CODE":"US","CLASSIFICATION_TYPE":"U","SEMIMAJOR_AXIS":"6925.318","EPOCH":"2023-05-08T21:01:12.246816","INCLINATION":"53.0535","OBJECT_TYPE":"PAYLOAD","TLE_LINE2":"2 45223  53.0535 336.5615 0001215  81.9183 278.1944 15.06410021179289","TIME_SYSTEM":"UTC","LAUNCH_DATE":"2020-02-17","MEAN_ELEMENT_THEORY":"SGP4","ELEMENT_SET_NO":"999","MEAN_ANOMALY":"278.1944","MEAN_MOTION_DOT":"0.00013798","FILE":"3904305"},{"RCS_SIZE":"LARGE","PERIOD":"95.591","REF_FRAME":"TEME","TLE_LINE1":"1 45225U 20012AZ  23128.89521391  .00022283  00000-0  15094-2 0  9995","PERIAPSIS":"546.600","GP_ID":"231471876","DECAY_DATE":null,"APOAPSIS":"547.725","SITE":"AFETR","ARG_OF_PERICENTER":"86.4322","NORAD_CAT_ID":"45225","MEAN_MOTION":"15.06416679","REV_AT_EPOCH":"17923","OBJECT_ID":"2020-012AZ","OBJECT_NAME":"STARLINK-1215","RA_OF_ASC_NODE":"336.4794","BSTAR":"0.00150940000000","ECCENTRICITY":"0.00008120","MEAN_MOTION_DDOT":"0.0000000000000","SEMIMAJOR_AXIS":"6925.297","CLASSIFICATION_TYPE":"U","COUNTRY_CODE":"US","EPHEMERIS_TYPE":"0","CENTER_NAME":"EARTH","OBJECT_TYPE":"PAYLOAD","EPOCH":"2023-05-08T21:29:06.481824","INCLINATION":"53.0533","LAUNCH_DATE":"2020-02-17","TIME_SYSTEM":"UTC","MEAN_ELEMENT_THEORY":"SGP4","ELEMENT_SET_NO":"999","MEAN_ANOMALY":"273.6760","TLE_LINE2":"2 45225  53.0533 336.4794 0000812  86.4322 273.6760 15.06416679179239","FILE":"3904305","MEAN_MOTION_DOT":"0.00022283"},{"DECAY_DATE":null,"APOAPSIS":"548.070","PERIOD":"95.591","RCS_SIZE":"LARGE","REF_FRAME":"TEME","TLE_LINE1":"1 45226U 20012BA  23128.83624319  .00021488  00000-0  14564-2 0  9991","PERIAPSIS":"546.256","GP_ID":"231471623","REV_AT_EPOCH":"17918","OBJECT_ID":"2020-012BA","SITE":"AFETR","ARG_OF_PERICENTER":"85.4948","NORAD_CAT_ID":"45226","MEAN_MOTION":"15.06416441","BSTAR":"0.00145640000000","ECCENTRICITY":"0.00013100","RA_OF_ASC_NODE":"336.7428","OBJECT_NAME":"STARLINK-1217","MEAN_MOTION_DDOT":"0.0000000000000","EPHEMERIS_TYPE":"0","CENTER_NAME":"EARTH","SEMIMAJOR_AXIS":"6925.298","CLASSIFICATION_TYPE":"U","COUNTRY_CODE":"US","EPOCH":"2023-05-08T20:04:11.411616","INCLINATION":"53.0534","OBJECT_TYPE":"PAYLOAD","TLE_LINE2":"2 45226  53.0534 336.7428 0001310  85.4948 274.6191 15.06416441179185","LAUNCH_DATE":"2020-02-17","MEAN_ELEMENT_THEORY":"SGP4","MEAN_ANOMALY":"274.6191","TIME_SYSTEM":"UTC","ELEMENT_SET_NO":"999","FILE":"3904305","MEAN_MOTION_DOT":"0.00021488"}];
